OBJECT_NAME,OBJECT_ID,EPOCH,MEAN_MOTION,ECCENTRICITY,INCLINATION,RA_OF_ASC_NODE,ARG_OF_PERICENTER,MEAN_ANOMALY,EPHEMERIS_TYPE,CLASSIFICATION_TYPE,NORAD_CAT_ID,ELEMENT_SET_NO,REV_AT_EPOCH,BSTAR,MEAN_MOTION_DOT,MEAN_MOTION_DDOT
STARLINK-4633,2022-125A,2026-06-07T08:05:22.092000,15.08837345,.0001242,53.1756,181.7956,88.2058,271.9076,0,U,53964,999,20285,-.31924E-4,-.796E-5,0
STARLINK-4635,2022-125C,2026-06-07T19:02:27.269952,15.08833415,.0001185,53.1700,179.6650,128.8961,231.2137,0,U,53966,999,20292,.17835E-4,-.4E-7,0
STARLINK-4634,2022-125D,2026-06-07T18:57:09.818208,15.08815115,.0001142,53.1698,179.6432,84.5260,275.5862,0,U,53967,999,20292,.27933E-3,.4158E-4,0
STARLINK-4629,2022-125E,2026-06-07T18:41:14.132256,15.08831372,.000103,53.1705,179.5704,81.7665,278.3443,0,U,53968,999,20292,.63236E-4,.719E-5,0
STARLINK-4468,2022-125F,2026-06-07T18:51:51.518016,15.08801577,.0001028,53.1690,179.6195,88.7061,271.4048,0,U,53969,999,20292,.47929E-3,.7341E-4,0
STARLINK-4567,2022-125G,2026-06-07T07:47:27.809088,15.08834942,.0001229,53.1754,176.7368,87.1184,272.9948,0,U,53970,999,20293,-.50042E-5,-.368E-5,0
STARLINK-5156,2022-125K,2026-06-07T18:35:56.349600,15.08807728,.0001132,53.1693,179.5506,94.5929,265.5192,0,U,53973,999,20292,.42625E-3,.6497E-4,0
STARLINK-5159,2022-125L,2026-06-08T03:23:08.886912,15.08842254,.0001342,53.1680,157.6304,69.6679,290.4456,0,U,53974,999,20326,-.86151E-4,-.1659E-4,0
STARLINK-5137,2022-125M,2026-06-07T08:19:11.232192,15.08801784,.0001385,53.1712,176.1727,68.8196,291.2943,0,U,53975,999,20293,.37104E-3,.5616E-4,0
STARLINK-5134,2022-125N,2026-06-07T17:24:24.121152,15.08863548,.0001072,53.1723,160.0107,84.4921,275.6192,0,U,53976,999,20319,.21138E-3,.308E-4,0
STARLINK-5094,2022-125P,2026-06-08T01:27:19.035936,15.08830295,.0001126,53.1668,173.4989,82.2519,277.8601,0,U,53977,999,20303,.16503E-4,-.25E-6,0
STARLINK-5148,2022-125Q,2026-06-08T04:11:33.489024,15.08805601,.0001454,53.1686,172.7901,81.2202,278.8954,0,U,53978,999,20305,.36467E-3,.5515E-4,0
STARLINK-5123,2022-125R,2026-06-07T07:42:09.373248,15.08834854,.0001219,53.1748,176.7051,93.8925,266.2206,0,U,53979,999,20292,.1855E-4,.7E-7,0
STARLINK-5133,2022-125S,2026-06-07T18:12:40.815936,15.08860234,.0001161,53.1721,174.4646,39.9098,320.1979,0,U,53980,999,20299,.14591E-3,.2036E-4,0
STARLINK-5149,2022-125T,2026-06-08T03:44:22.714080,15.08830141,.0001281,53.1671,157.7369,84.5830,275.5308,0,U,53981,999,20326,-.22147E-5,-.323E-5,0
STARLINK-5120,2022-125U,2026-06-07T17:17:48.416064,15.08800723,.0001529,53.1689,169.9544,89.3401,270.7765,0,U,53982,999,20304,.39238E-3,.5956E-4,0
STARLINK-5142,2022-125W,2026-06-07T17:33:43.761600,15.08783603,.0001592,53.1695,170.0211,65.6794,294.4364,0,U,53984,999,20305,.62866E-3,.9716E-4,0
STARLINK-5147,2022-125X,2026-06-07T17:44:20.583168,15.08789889,.0001379,53.1691,170.0686,79.8893,280.2254,0,U,53985,999,20305,.52175E-3,.8014E-4,0
STARLINK-5119,2022-125Y,2026-06-08T03:33:45.437184,15.08834386,.0001253,53.1679,157.6748,81.0176,279.0957,0,U,53986,999,20325,.41448E-4,.372E-5,0
STARLINK-5113,2022-125AA,2026-06-08T01:25:19.657920,15.08834245,.0001202,53.1663,168.5094,81.0896,279.0232,0,U,53988,999,20309,.79067E-4,.97E-5,0
STARLINK-5118,2022-125AD,2026-06-07T07:36:12.562848,15.08812768,.0001773,53.1712,161.6598,56.0177,304.0983,0,U,53991,999,20312,-.17313E-3,-.3041E-4,0
STARLINK-5108,2022-125AE,2026-06-07T07:40:10.104096,15.08833764,.0001094,53.1726,171.7178,82.8483,277.2633,0,U,53992,999,20298,.34666E-4,.264E-5,0
STARLINK-5121,2022-125AF,2026-06-08T03:46:23.510784,15.08828988,.0000996,53.1684,162.7072,83.6674,276.4431,0,U,53993,999,20318,-.43272E-5,-.357E-5,0
STARLINK-5125,2022-125AG,2026-06-08T04:04:15.796128,15.08835423,.0001416,53.1691,167.7761,92.9693,267.1460,0,U,53994,999,20312,.10337E-4,-.124E-5,0
STARLINK-5097,2022-125AH,2026-06-07T07:34:51.822912,15.08842072,.000121,53.1762,171.6966,83.6838,276.4291,0,U,53995,999,20298,-.14113E-4,-.513E-5,0
STARLINK-5131,2022-125AJ,2026-06-08T03:58:57.312768,15.08834546,.0001259,53.1678,167.7532,90.5472,269.5664,0,U,53996,999,20312,.19717E-4,.26E-6,0
STARLINK-5130,2022-125AK,2026-06-08T03:12:39.280608,15.08837706,.0001255,53.1682,158.2859,82.1122,278.0012,0,U,53997,999,20325,.42715E-4,.392E-5,0
STARLINK-5128,2022-125AL,2026-06-07T18:16:02.457984,15.08821890,.000134,53.1695,169.4933,89.6573,270.4572,0,U,53998,999,20306,.17431E-3,.2486E-4,0
STARLINK-5079,2022-125AM,2026-06-08T04:09:34.155936,15.08832737,.0001219,53.1675,167.7987,86.5060,273.6071,0,U,53999,999,20312,.3237E-4,.227E-5,0
STARLINK-5088,2022-125AN,2026-06-07T17:35:02.726880,15.08817036,.0001451,53.1696,160.0518,83.4658,276.6499,0,U,54000,999,20319,.28708E-3,.4281E-4,0
