STARLINK-4633           
1 53964U 22125A   26158.33706125 -.00000796  00000+0 -31924-4 0  9994
2 53964  53.1756 181.7956 0001242  88.2058 271.9076 15.08837345202856
STARLINK-4635           
1 53966U 22125C   26158.79337118 -.00000004  00000+0  17835-4 0  9994
2 53966  53.1700 179.6650 0001185 128.8961 231.2137 15.08833415202923
STARLINK-4634           
1 53967U 22125D   26158.78969697  .00004158  00000+0  27933-3 0  9999
2 53967  53.1698 179.6432 0001142  84.5260 275.5862 15.08815115202924
STARLINK-4629           
1 53968U 22125E   26158.77863579  .00000719  00000+0  63236-4 0  9997
2 53968  53.1705 179.5704 0001030  81.7665 278.3443 15.08831372202928
STARLINK-4468           
1 53969U 22125F   26158.78601294  .00007341  00000+0  47929-3 0  9991
2 53969  53.1690 179.6195 0001028  88.7061 271.4048 15.08801577202920
STARLINK-4567           
1 53970U 22125G   26158.32462742 -.00000368  00000+0 -50042-5 0  9992
2 53970  53.1754 176.7368 0001229  87.1184 272.9948 15.08834942202933
STARLINK-5156           
1 53973U 22125K   26158.77495775  .00006497  00000+0  42625-3 0  9999
2 53973  53.1693 179.5506 0001132  94.5929 265.5192 15.08807728202925
STARLINK-5159           
1 53974U 22125L   26159.14107508 -.00001659  00000+0 -86151-4 0  9996
2 53974  53.1680 157.6304 0001342  69.6679 290.4456 15.08842254203264
STARLINK-5137           
1 53975U 22125M   26158.34665778  .00005616  00000+0  37104-3 0  9994
2 53975  53.1712 176.1727 0001385  68.8196 291.2943 15.08801784202934
STARLINK-5134           
1 53976U 22125N   26158.72527918  .00003080  00000+0  21138-3 0  9993
2 53976  53.1723 160.0107 0001072  84.4921 275.6192 15.08863548203191
STARLINK-5094           
1 53977U 22125P   26159.06063699 -.00000025  00000+0  16503-4 0  9991
2 53977  53.1668 173.4989 0001126  82.2519 277.8601 15.08830295203030
STARLINK-5148           
1 53978U 22125Q   26159.17469316  .00005515  00000+0  36467-3 0  9998
2 53978  53.1686 172.7901 0001454  81.2202 278.8954 15.08805601203056
STARLINK-5123           
1 53979U 22125R   26158.32094182  .00000007  00000+0  18550-4 0  9995
2 53979  53.1748 176.7051 0001219  93.8925 266.2206 15.08834854202924
STARLINK-5133           
1 53980U 22125S   26158.75880574  .00002036  00000+0  14591-3 0  9996
2 53980  53.1721 174.4646 0001161  39.9098 320.1979 15.08860234202995
STARLINK-5149           
1 53981U 22125T   26159.15581845 -.00000323  00000+0 -22147-5 0  9998
2 53981  53.1671 157.7369 0001281  84.5830 275.5308 15.08830141203263
STARLINK-5120           
1 53982U 22125U   26158.72069926  .00005956  00000+0  39238-3 0  9994
2 53982  53.1689 169.9544 0001529  89.3401 270.7765 15.08800723203048
STARLINK-5142           
1 53984U 22125W   26158.73175650  .00009716  00000+0  62866-3 0  9990
2 53984  53.1695 170.0211 0001592  65.6794 294.4364 15.08783603203059
STARLINK-5147           
1 53985U 22125X   26158.73912712  .00008014  00000+0  52175-3 0  9991
2 53985  53.1691 170.0686 0001379  79.8893 280.2254 15.08789889203055
STARLINK-5119           
1 53986U 22125Y   26159.14844256  .00000372  00000+0  41448-4 0  9996
2 53986  53.1679 157.6748 0001253  81.0176 279.0957 15.08834386203253
STARLINK-5113           
1 53988U 22125AA  26159.05925530  .00000970  00000+0  79067-4 0  9995
2 53988  53.1663 168.5094 0001202  81.0896 279.0232 15.08834245203098
STARLINK-5118           
1 53991U 22125AD  26158.31681207 -.00003041  00000+0 -17313-3 0  9996
2 53991  53.1712 161.6598 0001773  56.0177 304.0983 15.08812768203129
STARLINK-5108           
1 53992U 22125AE  26158.31956139  .00000264  00000+0  34666-4 0  9999
2 53992  53.1726 171.7178 0001094  82.8483 277.2633 15.08833764202989
STARLINK-5121           
1 53993U 22125AF  26159.15721656 -.00000357  00000+0 -43272-5 0  9996
2 53993  53.1684 162.7072 0000996  83.6674 276.4431 15.08828988203189
STARLINK-5125           
1 53994U 22125AG  26159.16962727 -.00000124  00000+0  10337-4 0  9990
2 53994  53.1691 167.7761 0001416  92.9693 267.1460 15.08835423203125
STARLINK-5097           
1 53995U 22125AH  26158.31587758 -.00000513  00000+0 -14113-4 0  9993
2 53995  53.1762 171.6966 0001210  83.6838 276.4291 15.08842072202982
STARLINK-5131           
1 53996U 22125AJ  26159.16594112  .00000026  00000+0  19717-4 0  9992
2 53996  53.1678 167.7532 0001259  90.5472 269.5664 15.08834546203129
STARLINK-5130           
1 53997U 22125AK  26159.13378797  .00000392  00000+0  42715-4 0  9999
2 53997  53.1682 158.2859 0001255  82.1122 278.0012 15.08837706203254
STARLINK-5128           
1 53998U 22125AL  26158.76113956  .00002486  00000+0  17431-3 0  9994
2 53998  53.1695 169.4933 0001340  89.6573 270.4572 15.08821890203066
STARLINK-5079           
1 53999U 22125AM  26159.17331199  .00000227  00000+0  32370-4 0  9993
2 53999  53.1675 167.7987 0001219  86.5060 273.6071 15.08832737203125
STARLINK-5088           
1 54000U 22125AN  26158.73267045  .00004281  00000+0  28708-3 0  9999
2 54000  53.1696 160.0518 0001451  83.4658 276.6499 15.08817036203194
